BEIJING 1               
1 28890U 05043A   25334.87155777  .00000439  00000+0  94334-4 0  9995
2 28890  98.2648 102.3510 0014683 177.5456 182.5820 14.63347414 71646
HUANJING 1A (HJ-1A)     
1 33320U 08041A   25334.89138983  .00001554  00000+0  19521-3 0  9995
2 33320  97.6533 323.6858 0020720  70.9407 289.4049 14.83333052929007
HUANJING 1B (HJ-1B)     
1 33321U 08041B   25334.91292411  .00001241  00000+0  15800-3 0  9995
2 33321  97.6394 327.4342 0038077 113.1477 247.3756 14.82771438929027
YAOGAN-4                
1 33446U 08061A   25334.79334215  .00001627  00000+0  20840-3 0  9998
2 33446  97.9166 265.0112 0014627   3.0675 357.0625 14.82620391916266
DEIMOS-1                
1 35681U 09041A   25334.84209387  .00000733  00000+0  11618-3 0  9997
2 35681  97.7145 135.9998 0002653 100.9284 259.2224 14.74922436877642
UK-DMC 2                
1 35683U 09041C   25334.84461884  .00001084  00000+0  16621-3 0  9990
2 35683  97.8560 110.0842 0001251 103.0073 257.1277 14.75578356877319
DMC3-FM1                
1 40715U 15032A   25334.84665412  .00000835  00000+0  10290-3 0  9991
2 40715  97.6706 202.4717 0005541   2.7607 357.3638 14.85406136560468
DMC3-FM2                
1 40716U 15032B   25334.80180039  .00000850  00000+0  10470-3 0  9992
2 40716  97.6758 203.8638 0006197   6.9304 353.1996 14.85407095560456
