{
  "type": "FeatureCollection",
  "features": [
    {
      "type": "Feature",
      "properties": {
        "norad_id": 28890,
        "name": "BEIJING 1",
        "group": "dmc",
        "lat": NaN,
        "lon": NaN,
        "alt_km": NaN,
        "timestamp": "2025-12-01T03:03:40.654601+00:00",
        "meta": {
          "OBJECT_NAME": "BEIJING 1",
          "OBJECT_ID": "2005-043A",
          "EPOCH": "2025-11-30T20:55:02.591328",
          "MEAN_MOTION": 14.63347414,
          "ECCENTRICITY": 0.0014683,
          "INCLINATION": 98.2648,
          "RA_OF_ASC_NODE": 102.351,
          "ARG_OF_PERICENTER": 177.5456,
          "MEAN_ANOMALY": 182.582,
          "EPHEMERIS_TYPE": 0,
          "CLASSIFICATION_TYPE": "U",
          "NORAD_CAT_ID": 28890,
          "ELEMENT_SET_NO": 999,
          "REV_AT_EPOCH": 7164,
          "BSTAR": 9.4334e-05,
          "MEAN_MOTION_DOT": 4.39e-06,
          "MEAN_MOTION_DDOT": 0
        }
      },
      "geometry": {
        "type": "Point",
        "coordinates": [
          NaN,
          NaN
        ]
      }
    },
    {
      "type": "Feature",
      "properties": {
        "norad_id": 33320,
        "name": "HUANJING 1A (HJ-1A)",
        "group": "dmc",
        "lat": NaN,
        "lon": NaN,
        "alt_km": NaN,
        "timestamp": "2025-12-01T03:03:40.654644+00:00",
        "meta": {
          "OBJECT_NAME": "HUANJING 1A (HJ-1A)",
          "OBJECT_ID": "2008-041A",
          "EPOCH": "2025-11-30T21:23:36.081312",
          "MEAN_MOTION": 14.83333052,
          "ECCENTRICITY": 0.002072,
          "INCLINATION": 97.6533,
          "RA_OF_ASC_NODE": 323.6858,
          "ARG_OF_PERICENTER": 70.9407,
          "MEAN_ANOMALY": 289.4049,
          "EPHEMERIS_TYPE": 0,
          "CLASSIFICATION_TYPE": "U",
          "NORAD_CAT_ID": 33320,
          "ELEMENT_SET_NO": 999,
          "REV_AT_EPOCH": 92900,
          "BSTAR": 0.00019521,
          "MEAN_MOTION_DOT": 1.554e-05,
          "MEAN_MOTION_DDOT": 0
        }
      },
      "geometry": {
        "type": "Point",
        "coordinates": [
          NaN,
          NaN
        ]
      }
    },
    {
      "type": "Feature",
      "properties": {
        "norad_id": 33321,
        "name": "HUANJING 1B (HJ-1B)",
        "group": "dmc",
        "lat": NaN,
        "lon": NaN,
        "alt_km": NaN,
        "timestamp": "2025-12-01T03:03:40.654669+00:00",
        "meta": {
          "OBJECT_NAME": "HUANJING 1B (HJ-1B)",
          "OBJECT_ID": "2008-041B",
          "EPOCH": "2025-11-30T21:54:36.643104",
          "MEAN_MOTION": 14.82771438,
          "ECCENTRICITY": 0.0038077,
          "INCLINATION": 97.6394,
          "RA_OF_ASC_NODE": 327.4342,
          "ARG_OF_PERICENTER": 113.1477,
          "MEAN_ANOMALY": 247.3756,
          "EPHEMERIS_TYPE": 0,
          "CLASSIFICATION_TYPE": "U",
          "NORAD_CAT_ID": 33321,
          "ELEMENT_SET_NO": 999,
          "REV_AT_EPOCH": 92902,
          "BSTAR": 0.000158,
          "MEAN_MOTION_DOT": 1.241e-05,
          "MEAN_MOTION_DDOT": 0
        }
      },
      "geometry": {
        "type": "Point",
        "coordinates": [
          NaN,
          NaN
        ]
      }
    },
    {
      "type": "Feature",
      "properties": {
        "norad_id": 33446,
        "name": "YAOGAN-4",
        "group": "dmc",
        "lat": NaN,
        "lon": NaN,
        "alt_km": NaN,
        "timestamp": "2025-12-01T03:03:40.654681+00:00",
        "meta": {
          "OBJECT_NAME": "YAOGAN-4",
          "OBJECT_ID": "2008-061A",
          "EPOCH": "2025-11-30T19:02:24.761760",
          "MEAN_MOTION": 14.82620391,
          "ECCENTRICITY": 0.0014627,
          "INCLINATION": 97.9166,
          "RA_OF_ASC_NODE": 265.0112,
          "ARG_OF_PERICENTER": 3.0675,
          "MEAN_ANOMALY": 357.0625,
          "EPHEMERIS_TYPE": 0,
          "CLASSIFICATION_TYPE": "U",
          "NORAD_CAT_ID": 33446,
          "ELEMENT_SET_NO": 999,
          "REV_AT_EPOCH": 91626,
          "BSTAR": 0.0002084,
          "MEAN_MOTION_DOT": 1.627e-05,
          "MEAN_MOTION_DDOT": 0
        }
      },
      "geometry": {
        "type": "Point",
        "coordinates": [
          NaN,
          NaN
        ]
      }
    },
    {
      "type": "Feature",
      "properties": {
        "norad_id": 35681,
        "name": "DEIMOS-1",
        "group": "dmc",
        "lat": NaN,
        "lon": NaN,
        "alt_km": NaN,
        "timestamp": "2025-12-01T03:03:40.654696+00:00",
        "meta": {
          "OBJECT_NAME": "DEIMOS-1",
          "OBJECT_ID": "2009-041A",
          "EPOCH": "2025-11-30T20:12:36.910368",
          "MEAN_MOTION": 14.74922436,
          "ECCENTRICITY": 0.0002653,
          "INCLINATION": 97.7145,
          "RA_OF_ASC_NODE": 135.9998,
          "ARG_OF_PERICENTER": 100.9284,
          "MEAN_ANOMALY": 259.2224,
          "EPHEMERIS_TYPE": 0,
          "CLASSIFICATION_TYPE": "U",
          "NORAD_CAT_ID": 35681,
          "ELEMENT_SET_NO": 999,
          "REV_AT_EPOCH": 87764,
          "BSTAR": 0.00011618,
          "MEAN_MOTION_DOT": 7.33e-06,
          "MEAN_MOTION_DDOT": 0
        }
      },
      "geometry": {
        "type": "Point",
        "coordinates": [
          NaN,
          NaN
        ]
      }
    },
    {
      "type": "Feature",
      "properties": {
        "norad_id": 35683,
        "name": "UK-DMC 2",
        "group": "dmc",
        "lat": NaN,
        "lon": NaN,
        "alt_km": NaN,
        "timestamp": "2025-12-01T03:03:40.654705+00:00",
        "meta": {
          "OBJECT_NAME": "UK-DMC 2",
          "OBJECT_ID": "2009-041C",
          "EPOCH": "2025-11-30T20:16:15.067776",
          "MEAN_MOTION": 14.75578356,
          "ECCENTRICITY": 0.0001251,
          "INCLINATION": 97.856,
          "RA_OF_ASC_NODE": 110.0842,
          "ARG_OF_PERICENTER": 103.0073,
          "MEAN_ANOMALY": 257.1277,
          "EPHEMERIS_TYPE": 0,
          "CLASSIFICATION_TYPE": "U",
          "NORAD_CAT_ID": 35683,
          "ELEMENT_SET_NO": 999,
          "REV_AT_EPOCH": 87731,
          "BSTAR": 0.00016621,
          "MEAN_MOTION_DOT": 1.084e-05,
          "MEAN_MOTION_DDOT": 0
        }
      },
      "geometry": {
        "type": "Point",
        "coordinates": [
          NaN,
          NaN
        ]
      }
    },
    {
      "type": "Feature",
      "properties": {
        "norad_id": 40715,
        "name": "DMC3-FM1",
        "group": "dmc",
        "lat": NaN,
        "lon": NaN,
        "alt_km": NaN,
        "timestamp": "2025-12-01T03:03:40.654789+00:00",
        "meta": {
          "OBJECT_NAME": "DMC3-FM1",
          "OBJECT_ID": "2015-032A",
          "EPOCH": "2025-11-30T20:19:10.915968",
          "MEAN_MOTION": 14.85406136,
          "ECCENTRICITY": 0.0005541,
          "INCLINATION": 97.6706,
          "RA_OF_ASC_NODE": 202.4717,
          "ARG_OF_PERICENTER": 2.7607,
          "MEAN_ANOMALY": 357.3638,
          "EPHEMERIS_TYPE": 0,
          "CLASSIFICATION_TYPE": "U",
          "NORAD_CAT_ID": 40715,
          "ELEMENT_SET_NO": 999,
          "REV_AT_EPOCH": 56046,
          "BSTAR": 0.0001029,
          "MEAN_MOTION_DOT": 8.35e-06,
          "MEAN_MOTION_DDOT": 0
        }
      },
      "geometry": {
        "type": "Point",
        "coordinates": [
          NaN,
          NaN
        ]
      }
    },
    {
      "type": "Feature",
      "properties": {
        "norad_id": 40716,
        "name": "DMC3-FM2",
        "group": "dmc",
        "lat": NaN,
        "lon": NaN,
        "alt_km": NaN,
        "timestamp": "2025-12-01T03:03:40.654796+00:00",
        "meta": {
          "OBJECT_NAME": "DMC3-FM2",
          "OBJECT_ID": "2015-032B",
          "EPOCH": "2025-11-30T19:14:35.553696",
          "MEAN_MOTION": 14.85407095,
          "ECCENTRICITY": 0.0006197,
          "INCLINATION": 97.6758,
          "RA_OF_ASC_NODE": 203.8638,
          "ARG_OF_PERICENTER": 6.9304,
          "MEAN_ANOMALY": 353.1996,
          "EPHEMERIS_TYPE": 0,
          "CLASSIFICATION_TYPE": "U",
          "NORAD_CAT_ID": 40716,
          "ELEMENT_SET_NO": 999,
          "REV_AT_EPOCH": 56045,
          "BSTAR": 0.0001047,
          "MEAN_MOTION_DOT": 8.5e-06,
          "MEAN_MOTION_DDOT": 0
        }
      },
      "geometry": {
        "type": "Point",
        "coordinates": [
          NaN,
          NaN
        ]
      }
    }
  ]
}